{
  "type": "FeatureCollection",
  "features": [
    {
      "type": "Feature",
      "properties": {
        "norad_id": 29945,
        "name": "FENGYUN 1C DEB",
        "group": "fengyun-1c-debris",
        "lat": 22.722233578590192,
        "lon": 4.320636125768724,
        "alt_km": 852.1924255438935,
        "timestamp": "2025-12-10T07:43:55.051906+00:00",
        "meta_object_name": "FENGYUN 1C DEB",
        "meta_object_id": "1999-025JT",
        "meta_epoch": "2025-12-09T07:45:25.693920",
        "meta_mean_motion": 14.05571051,
        "meta_eccentricity": 0.0031114,
        "meta_inclination": 98.7922,
        "meta_ra_of_asc_node": 7.0677,
        "meta_arg_of_pericenter": 12.1269,
        "meta_mean_anomaly": 358.9551,
        "meta_ephemeris_type": 0,
        "meta_classification_type": "U",
        "meta_norad_cat_id": 29945,
        "meta_element_set_no": 999,
        "meta_rev_at_epoch": 96930,
        "meta_bstar": 8.0182e-05,
        "meta_mean_motion_dot": 8.8e-07,
        "meta_mean_motion_ddot": 0,
        "tle_line1": "1 29945U 99025JT  25343.32321405  .00000088  00000+0  80182-4 0  9999",
        "tle_line2": "2 29945  98.7922   7.0677 0031114  12.1269 358.9551 14.05571051969308"
      },
      "geometry": {
        "type": "Point",
        "coordinates": [
          4.320636125768724,
          22.722233578590192
        ]
      }
    },
    {
      "type": "Feature",
      "properties": {
        "norad_id": 29946,
        "name": "FENGYUN 1C DEB",
        "group": "fengyun-1c-debris",
        "lat": 21.376980792282353,
        "lon": -26.84084749004084,
        "alt_km": 815.0420499463644,
        "timestamp": "2025-12-10T07:43:55.051969+00:00",
        "meta_object_name": "FENGYUN 1C DEB",
        "meta_object_id": "1999-025JU",
        "meta_epoch": "2025-12-09T11:53:16.509408",
        "meta_mean_motion": 14.08250399,
        "meta_eccentricity": 0.0080816,
        "meta_inclination": 98.7798,
        "meta_ra_of_asc_node": 335.8228,
        "meta_arg_of_pericenter": 352.6435,
        "meta_mean_anomaly": 159.1474,
        "meta_ephemeris_type": 0,
        "meta_classification_type": "U",
        "meta_norad_cat_id": 29946,
        "meta_element_set_no": 999,
        "meta_rev_at_epoch": 97001,
        "meta_bstar": 0.00048735764,
        "meta_mean_motion_dot": 8.15e-06,
        "meta_mean_motion_ddot": 0,
        "tle_line1": "1 29946U 99025JU  25343.49532997  .00000815  00000+0  48736-3 0  9994",
        "tle_line2": "2 29946  98.7798 335.8228 0080816 352.6435 159.1474 14.08250399970011"
      },
      "geometry": {
        "type": "Point",
        "coordinates": [
          -26.84084749004084,
          21.376980792282353
        ]
      }
    },
    {
      "type": "Feature",
      "properties": {
        "norad_id": 29947,
        "name": "FENGYUN 1C DEB",
        "group": "fengyun-1c-debris",
        "lat": 45.017713974109796,
        "lon": 5.9907522341505945,
        "alt_km": 874.8453961026016,
        "timestamp": "2025-12-10T07:43:55.051982+00:00",
        "meta_object_name": "FENGYUN 1C DEB",
        "meta_object_id": "1999-025JV",
        "meta_epoch": "2025-12-09T20:21:25.256736",
        "meta_mean_motion": 14.03063936,
        "meta_eccentricity": 0.0040845,
        "meta_inclination": 98.8367,
        "meta_ra_of_asc_node": 14.4856,
        "meta_arg_of_pericenter": 128.7367,
        "meta_mean_anomaly": 44.8693,
        "meta_ephemeris_type": 0,
        "meta_classification_type": "U",
        "meta_norad_cat_id": 29947,
        "meta_element_set_no": 999,
        "meta_rev_at_epoch": 96709,
        "meta_bstar": 0.00048239,
        "meta_mean_motion_dot": 7.13e-06,
        "meta_mean_motion_ddot": 0,
        "tle_line1": "1 29947U 99025JV  25343.84820899  .00000713  00000+0  48239-3 0  9990",
        "tle_line2": "2 29947  98.8367  14.4856 0040845 128.7367  44.8693 14.03063936967097"
      },
      "geometry": {
        "type": "Point",
        "coordinates": [
          5.9907522341505945,
          45.017713974109796
        ]
      }
    },
    {
      "type": "Feature",
      "properties": {
        "norad_id": 29948,
        "name": "FENGYUN 1C DEB",
        "group": "fengyun-1c-debris",
        "lat": -64.16244741136894,
        "lon": 131.85005618247027,
        "alt_km": 819.1765016125537,
        "timestamp": "2025-12-10T07:43:55.051992+00:00",
        "meta_object_name": "FENGYUN 1C DEB",
        "meta_object_id": "1999-025JW",
        "meta_epoch": "2025-12-09T17:46:00.211008",
        "meta_mean_motion": 14.06189501,
        "meta_eccentricity": 0.008366,
        "meta_inclination": 98.8239,
        "meta_ra_of_asc_node": 329.9934,
        "meta_arg_of_pericenter": 242.1146,
        "meta_mean_anomaly": 299.3358,
        "meta_ephemeris_type": 0,
        "meta_classification_type": "U",
        "meta_norad_cat_id": 29948,
        "meta_element_set_no": 999,
        "meta_rev_at_epoch": 96934,
        "meta_bstar": 0.00016889,
        "meta_mean_motion_dot": 2.43e-06,
        "meta_mean_motion_ddot": 0,
        "tle_line1": "1 29948U 99025JW  25343.74028022  .00000243  00000+0  16889-3 0  9992",
        "tle_line2": "2 29948  98.8239 329.9934 0083660 242.1146 299.3358 14.06189501969340"
      },
      "geometry": {
        "type": "Point",
        "coordinates": [
          131.85005618247027,
          -64.16244741136894
        ]
      }
    },
    {
      "type": "Feature",
      "properties": {
        "norad_id": 29949,
        "name": "FENGYUN 1C DEB",
        "group": "fengyun-1c-debris",
        "lat": -12.832993479446857,
        "lon": 178.06886382328375,
        "alt_km": 883.0348903874401,
        "timestamp": "2025-12-10T07:43:55.052003+00:00",
        "meta_object_name": "FENGYUN 1C DEB",
        "meta_object_id": "1999-025JX",
        "meta_epoch": "2025-12-09T19:43:55.804224",
        "meta_mean_motion": 14.06825185,
        "meta_eccentricity": 0.0023328,
        "meta_inclination": 98.7624,
        "meta_ra_of_asc_node": 359.598,
        "meta_arg_of_pericenter": 314.0639,
        "meta_mean_anomaly": 228.205,
        "meta_ephemeris_type": 0,
        "meta_classification_type": "U",
        "meta_norad_cat_id": 29949,
        "meta_element_set_no": 999,
        "meta_rev_at_epoch": 97066,
        "meta_bstar": 3.6806e-05,
        "meta_mean_motion_dot": 1.9e-07,
        "meta_mean_motion_ddot": 0,
        "tle_line1": "1 29949U 99025JX  25343.82217366  .00000019  00000+0  36806-4 0  9996",
        "tle_line2": "2 29949  98.7624 359.5980 0023328 314.0639 228.2050 14.06825185970661"
      },
      "geometry": {
        "type": "Point",
        "coordinates": [
          178.06886382328375,
          -12.832993479446857
        ]
      }
    },
    {
      "type": "Feature",
      "properties": {
        "norad_id": 29950,
        "name": "FENGYUN 1C DEB",
        "group": "fengyun-1c-debris",
        "lat": -1.5523218777164156,
        "lon": 15.706108138406316,
        "alt_km": 869.0065585446437,
        "timestamp": "2025-12-10T07:43:55.052013+00:00",
        "meta_object_name": "FENGYUN 1C DEB",
        "meta_object_id": "1999-025JY",
        "meta_epoch": "2025-12-09T20:40:47.491392",
        "meta_mean_motion": 14.10332272,
        "meta_eccentricity": 0.003224,
        "meta_inclination": 98.7414,
        "meta_ra_of_asc_node": 15.0196,
        "meta_arg_of_pericenter": 250.4807,
        "meta_mean_anomaly": 290.9512,
        "meta_ephemeris_type": 0,
        "meta_classification_type": "U",
        "meta_norad_cat_id": 29950,
        "meta_element_set_no": 999,
        "meta_rev_at_epoch": 97250,
        "meta_bstar": 0.00019222,
        "meta_mean_motion_dot": 3e-06,
        "meta_mean_motion_ddot": 0,
        "tle_line1": "1 29950U 99025JY  25343.86166078  .00000300  00000+0  19222-3 0  9990",
        "tle_line2": "2 29950  98.7414  15.0196 0032240 250.4807 290.9512 14.10332272972505"
      },
      "geometry": {
        "type": "Point",
        "coordinates": [
          15.706108138406316,
          -1.5523218777164156
        ]
      }
    },
    {
      "type": "Feature",
      "properties": {
        "norad_id": 29953,
        "name": "FENGYUN 1C DEB",
        "group": "fengyun-1c-debris",
        "lat": -79.20412900993708,
        "lon": 26.94109806517897,
        "alt_km": 855.9622540973214,
        "timestamp": "2025-12-10T07:43:55.052023+00:00",
        "meta_object_name": "FENGYUN 1C DEB",
        "meta_object_id": "1999-025KB",
        "meta_epoch": "2025-12-08T21:53:32.960256",
        "meta_mean_motion": 13.90839634,
        "meta_eccentricity": 0.0105571,
        "meta_inclination": 98.9371,
        "meta_ra_of_asc_node": 329.9742,
        "meta_arg_of_pericenter": 277.1998,
        "meta_mean_anomaly": 142.8765,
        "meta_ephemeris_type": 0,
        "meta_classification_type": "U",
        "meta_norad_cat_id": 29953,
        "meta_element_set_no": 999,
        "meta_rev_at_epoch": 95809,
        "meta_bstar": 0.00062508,
        "meta_mean_motion_dot": 7.75e-06,
        "meta_mean_motion_ddot": 0,
        "tle_line1": "1 29953U 99025KB  25342.91218704  .00000775  00000+0  62508-3 0  9993",
        "tle_line2": "2 29953  98.9371 329.9742 0105571 277.1998 142.8765 13.90839634958095"
      },
      "geometry": {
        "type": "Point",
        "coordinates": [
          26.94109806517897,
          -79.20412900993708
        ]
      }
    }
  ]
}